#dP2021  8 18 18  0  0.00000000      96 __u+U ITR00 EXT  IAC
## 2171 324000.00000000   900.00000000 59444 0.7500000000000
+  114   C06C08C09C10C11C12C13C14C16C19C20C21C22C23C24C25C26
+        C27C28C29C30C32C33C34C35C36C37C38C39C41C42C43C44C45
+        C46E01E02E03E04E05E07E08E09E11E12E13E14E15E18E19E21
+        E24E25E26E27E30E31E33E36G01G02G03G04G05G06G07G08G09
+        G10G12G13G14G15G16G17G18G19G20G21G22G23G24G25G26G27
+        G28G29G30G31G32J01J02J03R01R02R03R04R05R07R08R09R11
+        R12R13R14R15R16R17R18R19R20R21R22R24  0  0  0  0  0
++        10  9  9 10  8  9  9  7 10  7  8  8  9  9  8  9  8
++         8  9  8 10  8  9  8  7  9  9 10  9  9  8  8  8  8
++         8  8  8  9  8  8  9 10  8  9  8  9  9  8  8  9  7
++         8  7  8  7  9  8  7  7  6  9  6  7  8  7  7  7  7
++         8  8  6  8  7  8  7  6  8  8  7  7  6  7  8  7  8
++         8  7  8  8  7  9  9  9  8  9  9 10  9  8  7  9  9
++         9  8  9  7  7  7  9  9 10  8  9  8  0  0  0  0  0
%c M  cc GPS ccc cccc cccc cccc cccc ccccc ccccc ccccc ccccc
%c cc cc ccc ccc cccc cccc cccc cccc ccccc ccccc ccccc ccccc
%f  0.0000000  0.000000000  0.00000000000  0.000000000000000
%f  0.0000000  0.000000000  0.00000000000  0.000000000000000
%i    0    0    0    0      0      0      0      0         0
%i    0    0    0    0      0      0      0      0         0
/* IAC                                ULTRA-RAPID PREDICTION
/* S/V CLOCKS ARE ALIGNED TO GNSS TIME                      
/* G:C1WC2W R:C1PC2P E:C1XC5X C:C2IC6I J:C1CC2S             
/* PCV:IGS14_2163 OL/AL:FES2004  NONE     YN ORB:CoN CLK:CoN
*  2021 08 18 21 45  0.00000000
PC06  -1613.940021  35497.108069 -22555.003041    776.044462
PC08 -21879.881846  36140.478550  -3087.119844   -923.950403
PC09   5369.701699  39153.916350 -13757.119164    -37.393612
PC10  -4171.169527  26615.144520  32643.250429     -7.445433
PC11  -3647.814317  22053.986357  16793.460031    524.545357
PC12 -14374.142937   5373.167237  23337.032894    778.982659
PC13 -10791.050441  37167.020875 -16971.888666    378.278860
PC14 -10446.411332  13802.526545 -21857.640416    710.365173
PC16  -3038.720508  33886.009922 -24651.124434   -853.857687
PC19   -849.224415 -16035.345137  22842.291624    951.935978
PC20  18420.573543 -10135.138999  18375.829526   -817.198930
PC21 -27679.240752  -2217.661665  -2631.637617   -938.915654
PC22 -20271.361848 -12871.379499  14190.404661   -950.444906
PC23   9613.952594  13650.229896  22374.792933   -961.406475
PC24 -19576.476591  19436.848849  -4285.615635   -964.175437
PC25  -5939.391827  23697.142262  13505.670692   -868.288465
PC26 -20511.977555   5483.741972 -18129.183015    862.545368
PC27  17501.960522   4963.119858 -21179.883858    583.076795
PC28  14691.394494  22124.141976  -8589.428581    -36.937445
PC29  -4232.540690 -26071.704405  -9010.330597    435.162539
PC30   9867.376672 -14863.096155 -21470.299868    477.877905
PC32  27717.451998   2017.736245   2615.173661   -932.837152
PC33    876.582980  16046.315373 -22814.395584   -959.777001
PC34  -9417.600032  15569.899198  21140.100231   -602.024655
PC35 -15314.974968 -21855.556650   8196.007623   -133.431479
PC36   6844.118392 -23614.521512 -13167.885401   -745.361208
PC37  20338.992077  -4016.220195  18697.591924   -861.678911
PC38 -19567.460522  37081.966368  -5189.499456    169.514033
PC39  -6363.433547  29933.256071 -28930.220988     32.828503
PC41  20075.446529  12938.056992 -14386.987002   -956.794679
PC42 -19103.379264   9735.383863 -17813.312214   -935.409226
PC43   3668.389124  25984.569290   9458.122235   -873.961650
PC44 -17806.930564  -4593.515656  20985.151411    347.765363
PC45  -9680.071552 -13398.481414 -22468.616084    524.167696
PC46  19080.997042 -20079.375652   3252.132163    125.998371
PE01  20897.592257   5789.837371  20157.590134  -1174.490984
PE02 -21012.294718  -5668.179528 -20060.896235    240.819957
PE03 -24770.098570 -15991.175625  -2535.061221   -465.139581
PE04  22997.212202    572.377232  18634.489672   -837.851884
PE05 -12022.722459 -22283.955421  15330.063419   -256.219523
PE07  -7561.273554  15520.170558 -24039.990554   -575.377620
PE08 -22746.709759   -231.544597 -18931.319005   5951.961927
PE09   7248.897923 -15542.284852  24127.745033   5561.620217
PE11   9469.135225 -26092.573586 -10304.895800   5558.468450
PE12  16212.797085  -8083.612986 -23417.825318   5053.729820
PE13  -9587.253211  25869.645164  10726.065695    420.435697
PE14  13236.864124 -15438.131518 -24349.408758  -1540.150315
PE15 -16108.433559   8156.149215  23455.095457    797.219880
PE18   -416.345536  19770.241594  15567.375146  -1689.295409
PE19  23952.866882  17388.551952    292.535843    355.553853
PE21   2683.480179  16735.559289  24274.450640   -682.784291
PE24  18771.330988 -18270.294506 -13770.257245  -1070.032027
PE25  -2433.413439 -16810.208642 -24228.058969   -543.692632
PE26   3086.805226  28003.528886  -9103.111395   1446.113566
PE27 -17905.239102  18551.239077  14555.763310   -100.858467
PE30 -27946.530800   8559.287823  -4710.810818   2691.145564
PE31  27820.125864  -9427.297036   3678.830641   -484.569322
PE33  13125.438041  14317.724536 -22338.538096   -466.107257
PE36  -2548.204800 -28306.681510   8265.962611   -250.238905
PG01 -13616.966088  19551.306292  11099.137941    593.650432
PG02  14504.730676   3185.948842 -21371.635915   -627.139872
PG03 -21304.111263  12265.289615 -10021.926895   -258.871190
PG04 -10316.497996  11241.047081 -21732.808474   -203.999771
PG05  25935.432616  -5790.462854  -2180.852841    -51.553511
PG06   8506.197481  16210.733676 -19163.559549     58.351567
PG07  -5395.146330  25590.212265   3045.632407    227.749882
PG08 -18048.768239    972.430632  19552.032194    -33.154052
PG09    915.043503  19315.220667 -18263.056270   -359.139336
PG10  -8480.342957 -13150.931725  21613.883758   -185.213862
PG12  22170.126843 -10705.365967 -10039.551692    -84.809950
PG13  19536.742005   8005.722640  16064.150272    173.185538
PG14   8284.708114  13638.265890  21236.554441     20.790456
PG15  18077.853423  -3391.218208  18895.419261   -127.427379
PG16 -25874.018147  -1032.521375  -7154.674449   -375.929657
PG17  11592.151904  22481.559352   8517.149299    491.408897
PG18   4500.149991 -25654.078065   4948.667674    331.511697
PG19  17001.552453  20484.420296  -1381.653815     41.380526
PG20  22815.827938   1217.509273 -13348.657934    519.582575
PG21 -15611.380257  12188.060969  18133.582802    137.962540
PG22 -24341.645368  10141.020995  -1891.125791   -534.965381
PG23   4730.428644 -16057.594510  20581.832668     69.043497
PG24  14640.650425 -15960.268868  14846.451891    212.121675
PG25  12698.245256 -15687.259579 -17386.817937    193.431717
PG26 -19620.999169  -6929.560446 -16716.716001    124.183287
PG27 -21217.425172  -9231.441729  13183.999795   -180.262012
PG28  14162.538854  11549.425403  19753.863182    517.428111
PG29   2262.289859 -17773.786026 -19631.249980   -398.284643
PG30   3243.396970  22583.826065  13467.784577   -463.645980
PG31 -10245.685010 -14218.032189 -19909.073963   -135.003410
PG32 -15310.821161 -21176.681463   5366.432782      6.717955
PJ01 -27136.518318  16191.980352 -23299.846570   -443.144614
PJ02 -31033.243990  27882.031079  10939.358856     -1.664301
PJ03 -25534.265494  24928.189592  27546.170997     -0.946751
PR01 -11292.643689 -13096.721331  18744.805653     84.052755
PR02 -23941.353393  -8859.392047    856.688707    490.173395
PR03 -20235.806588    803.427518 -15503.453571     41.448748
PR04  -5116.182022   9634.255786 -23033.292400    100.706095
PR05  12709.877020  13233.906058 -17699.658061     77.378081
PR07  19733.830194  -1263.241598  16120.997910    -41.611373
PR08   5048.780182  -9821.880940  23045.162603    -60.458243
PR09  15433.389602   -343.186783  20351.901556      8.743565
PR11  14136.772598 -18877.121157  -9723.390722     46.701037
PR12   -875.609774 -13099.307522 -21833.705211    254.753474
PR13 -14716.070514   -204.066261 -20840.108700    -59.350267
PR14 -20460.538964  13488.373605  -7023.296499     67.797786
PR15 -13925.905771  18723.537576  10325.049099    101.998690
PR16   2231.662012  12574.003651  22087.732293    -19.826718
PR17  -9312.828501   6553.394127  22832.600582    450.948049
PR18  -2475.955787  21197.756855  13946.681072     87.420137
PR19   4616.053950  25050.297430  -1490.791932   -155.918566
PR20  10600.239301  13307.257267 -18990.304393    -54.378687
PR21   8901.749797  -7784.031323 -22602.062720   -232.527224
PR22   2058.886411 -21844.015203 -13105.158845   -128.571128
PR24 -11300.510196 -12368.184647  19236.939916     55.044640
EOF
